IRIDIUM 64 [+]          
1 25287U 98021C   17015.36354869  .00000176  00000-0  55603-4 0  9999
2 25287  86.3974 287.8291 0002093  78.9991 281.1440 14.34223621983094
IRIDIUM 65 [+]          
1 25288U 98021D   17015.43961629  .00000172  00000-0  54528-4 0  9997
2 25288  86.3971 287.7035 0002184  86.7313 273.4132 14.34216311983127
IRIDIUM 66 [+]          
1 25289U 98021E   17015.33044543  .00000033  00000-0  48217-5 0  9999
2 25289  86.3973 287.6536 0002090  85.0360  39.1278 14.34216388983105
IRIDIUM 67 [+]          
1 25290U 98021F   17015.52206592  .00000175  00000-0  55500-4 0  9995
2 25290  86.3972 287.7079 0002081  84.3134 275.8299 14.34216185983141
IRIDIUM 68 [+]          
1 25291U 98021G   17015.31910435  .00000176  00000-0  55734-4 0  9991
2 25291  86.3974 287.9085 0002107  83.2584 276.8851 14.34215826983088
IRIDIUM 69 [-]          
1 25319U 98026A   17015.37257746  .00000085  00000-0  21257-4 0  9994
2 25319  86.4012 310.0078 0003956  72.8099 287.3532 14.38645905981069
IRIDIUM 71 [-]          
1 25320U 98026B   17015.40673906  .00000083  00000-0  20283-4 0  9996
2 25320  86.3994 305.9564 0003937 106.2573 253.9059 14.39056696981494
IRIDIUM 70 [+]          
1 25342U 98032A   17015.37113858  .00000175  00000-0  55603-4 0  9994
2 25342  86.3979 288.1214 0002087  88.1900  49.5912 14.34217664977190
IRIDIUM 72 [+]          
1 25343U 98032B   17015.47131575  .00000180  00000-0  57041-4 0  9996
2 25343  86.3971 287.7013 0002079  85.7197 274.4236 14.34216190977211
IRIDIUM 73 [-]          
1 25344U 98032C   17015.32137495  .00000124  00000-0  27313-4 0  9995
2 25344  86.4430 267.5236 0001784 105.0616 255.0785 14.49003288985413
IRIDIUM 74 [S]          
1 25345U 98032D   17015.35155587  .00000176  00000-0  47072-4 0  9992
2 25345  86.4487 288.1307 0006799 160.1506 338.7040 14.42439865980702
IRIDIUM 75 [+]          
1 25346U 98032E   17015.36528094  .00000033  00000-0  48537-5 0  9991
2 25346  86.3975 287.9925 0002099  84.1705  56.0664 14.34215642977762
IRIDIUM 3 [+]           
1 25431U 98048A   17015.55086708  .00000153  00000-0  47703-4 0  9991
2 25431  86.3981 319.5197 0002241  88.1125  10.2880 14.34213416963737
IRIDIUM 76 [+]          
1 25432U 98048B   17015.43819240  .00000136  00000-0  41427-4 0  9992
2 25432  86.3978 319.3260 0002048  87.2779  51.5509 14.34213525963707
IRIDIUM 82 [+]          
1 25467U 98051A   17015.31083776  .00000112  00000-0  32990-4 0  9997
2 25467  86.3952  86.0861 0002400  91.3650 268.7820 14.34218089964707
IRIDIUM 81 [+]          
1 25468U 98051B   17015.30450669  .00000162  00000-0  50784-4 0  9992
2 25468  86.3959  85.7123 0002062  95.2525 264.8906 14.34226970960920
IRIDIUM 80 [+]          
1 25469U 98051C   17015.29853126  .00000164  00000-0  51499-4 0  9992
2 25469  86.3964  85.9954 0002055  94.3713 332.7987 14.34226284960924
IRIDIUM 77 [+]          
1 25471U 98051E   17015.30504644  .00000164  00000-0  51353-4 0  9994
2 25471  86.3955  85.5749 0002155  99.4816 329.0018 14.34220164966129
IRIDIUM 2 [-]           
1 25527U 98066A   17015.41316369  .00000978  00000-0  48869-4 0  9990
2 25527  85.5325 122.4116 0007206 298.1972  61.8540 15.16087911994725
IRIDIUM 86 [+]          
1 25528U 98066B   17015.52942724  .00000054  00000-0  12050-4 0  9991
2 25528  86.3935  53.6337 0002323  97.2269 262.9191 14.34219005957482
IRIDIUM 84 [+]          
1 25530U 98066D   17015.49138123  .00000074  00000-0  19229-4 0  9997
2 25530  86.3936  53.8120 0002134  94.6143 265.5296 14.34218943955113
IRIDIUM 83 [+]          
1 25531U 98066E   17015.52309203  .00000070  00000-0  17972-4 0  9990
2 25531  86.3940  53.9179 0002160  93.0852 267.0591 14.34219432952478
IRIDIUM 20 [+]          
1 25577U 98074A   17015.51279623  .00000148  00000-0  45962-4 0  9996
2 25577  86.3977 319.2180 0002186  85.6669 274.4777 14.34213514946554
IRIDIUM 11 [+]          
1 25578U 98074B   17015.40919199  .00000022  00000-0  96159-6 0  9991
2 25578  86.3975 319.4648 0002312  83.3901  36.7294 14.34213870955502
IRIDIUM 14 [+]          
1 25777U 99032A   17015.42692833  .00000180  00000-0  57236-4 0  9998
2 25777  86.3976 287.7993 0002148  88.4991 271.6451 14.34215865932782
IRIDIUM 21 [+]          
1 25778U 99032B   17015.32544540  .00000180  00000-0  57072-4 0  9997
2 25778  86.3974 287.8627 0001918  84.1772 275.9643 14.34216633926204
IRIDIUM 91 [+]          
1 27372U 02005A   17015.52382603  .00000009  00000-0 -38297-5 0  9995
2 27372  86.3362 351.4411 0002445  93.7594  11.1389 14.34212903789749
IRIDIUM 90 [S]          
1 27373U 02005B   17015.48959085  .00000076  00000-0  16849-4 0  9996
2 27373  86.4450  53.9106 0002228  98.0587 262.0867 14.42948928789338
IRIDIUM 94 [+]          
1 27374U 02005C   17015.49391323  .00000144  00000-0  44222-4 0  9995
2 27374  86.3978 319.5551 0001918 106.0162 353.0510 14.34213160794068
IRIDIUM 95 [+]          
1 27375U 02005D   17015.47179328  .00000039  00000-0  69944-5 0  9995
2 27375  86.3736 351.3808 0002110  90.6127 269.5311 14.34213768789028
IRIDIUM 96 [+]          
1 27376U 02005E   17015.44980370 -.00000096  00000-0 -41312-4 0  9993
2 27376  86.3974  23.0144 0000823  71.6555 288.4730 14.34216176794221
IRIDIUM 97 [+]          
1 27450U 02031A   17015.48787151  .00000007  00000-0 -44313-5 0  9997
2 27450  86.3945  22.7297 0002171  84.8877 275.2566 14.34215172768348
IRIDIUM 98 [+]          
1 27451U 02031B   17015.06868704  .00000146  00000-0  45105-4 0  9998
2 27451  86.3957  86.2472 0002138  93.8697 325.9992 14.34228152769355
